STARLINK-30842
1 58357U 23177G   26061.16668981  .00984015  00000+0  42612-1 0  9990
2 58357  43.0010  18.0580 0001367 283.0160 350.7196 15.18859495  5828
STARLINK-30926
1 58448U 23183M   26061.16668981  .02247259  00000+0  95684-1 0  9999
2 58448  42.9989  83.1729 0001125 268.2649 108.2522 15.18876394  5768
